GLOBALSTAR M094         
1 39074U 13005C   26001.21611265 -.00000093  00000+0  60238-4 0  9990
2 39074  51.9975 299.1790 0000717  36.0693 324.0222 12.62265510597387
GLOBALSTAR M096         
1 39075U 13005D   26001.22911731 -.00000096  00000+0  43624-4 0  9996
2 39075  52.0100 347.8059 0000350  21.1434 338.9447 12.62269637596308
GLOBALSTAR M078         
1 39076U 13005E   26001.20307880 -.00000148  00000+0 -24530-3 0  9992
2 39076  51.9887  72.1277 0000593 227.8335 132.2482 12.62270847594928
GLOBALSTAR M095         
1 39077U 13005F   26001.30858321 -.00000096  00000+0  45175-4 0  9995
2 39077  52.0096  69.1737 0000094 152.1458 207.9414 12.62267467594796
GLOBALSTAR M087         
1 52888U 22064A   26001.00495246 -.00000068  00000+0  20000-3 0  9993
2 52888  51.9969 211.4322 0000967  68.9512 291.1458 12.62262168170026
